{
  "type": "FeatureCollection",
  "features": [
    {
      "type": "Feature",
      "properties": {
        "norad_id": 66473,
        "name": "STARLINK-35568",
        "group": "last-30-days",
        "lat": 26.959347985730815,
        "lon": -93.55251310232126,
        "alt_km": 397.9291248687232,
        "timestamp": "2025-12-04T10:51:48.875798+00:00",
        "meta_object_name": "STARLINK-35568",
        "meta_object_id": "2025-262T",
        "meta_epoch": "2025-12-04T04:00:03.000096",
        "meta_mean_motion": 15.56649916,
        "meta_eccentricity": 0.0001698,
        "meta_inclination": 42.9995,
        "meta_ra_of_asc_node": 121.2163,
        "meta_arg_of_pericenter": 271.0409,
        "meta_mean_anomaly": 63.5717,
        "meta_ephemeris_type": 0,
        "meta_classification_type": "U",
        "meta_norad_cat_id": 66473,
        "meta_element_set_no": 999,
        "meta_rev_at_epoch": 426,
        "meta_bstar": -0.033411,
        "meta_mean_motion_dot": -0.02167764,
        "meta_mean_motion_ddot": 0,
        "tle_line1": "1 66473U 25262T   25338.16670139 -.02167764  00000+0 -33411-1 0  9994",
        "tle_line2": "2 66473  42.9995 121.2163 0001698 271.0409  63.5717 15.56649916  4262"
      },
      "geometry": {
        "type": "Point",
        "coordinates": [
          -93.55251310232126,
          26.959347985730815
        ]
      }
    },
    {
      "type": "Feature",
      "properties": {
        "norad_id": 66474,
        "name": "STARLINK-35620",
        "group": "last-30-days",
        "lat": 25.851840206509895,
        "lon": -91.806708383379,
        "alt_km": 397.9686021763637,
        "timestamp": "2025-12-04T10:51:48.875810+00:00",
        "meta_object_name": "STARLINK-35620",
        "meta_object_id": "2025-262U",
        "meta_epoch": "2025-12-04T04:00:03.000096",
        "meta_mean_motion": 15.56652203,
        "meta_eccentricity": 0.0001619,
        "meta_inclination": 42.9994,
        "meta_ra_of_asc_node": 121.2111,
        "meta_arg_of_pericenter": 267.1718,
        "meta_mean_anomaly": 69.3587,
        "meta_ephemeris_type": 0,
        "meta_classification_type": "U",
        "meta_norad_cat_id": 66474,
        "meta_element_set_no": 999,
        "meta_rev_at_epoch": 426,
        "meta_bstar": -0.033477,
        "meta_mean_motion_dot": -0.02171642,
        "meta_mean_motion_ddot": 0,
        "tle_line1": "1 66474U 25262U   25338.16670139 -.02171642  00000+0 -33477-1 0  9997",
        "tle_line2": "2 66474  42.9994 121.2111 0001619 267.1718  69.3587 15.56652203  4269"
      },
      "geometry": {
        "type": "Point",
        "coordinates": [
          -91.806708383379,
          25.851840206509895
        ]
      }
    },
    {
      "type": "Feature",
      "properties": {
        "norad_id": 66475,
        "name": "STARLINK-35538",
        "group": "last-30-days",
        "lat": 24.724910758846004,
        "lon": -90.09401883513098,
        "alt_km": 398.15275831622057,
        "timestamp": "2025-12-04T10:51:48.875822+00:00",
        "meta_object_name": "STARLINK-35538",
        "meta_object_id": "2025-262V",
        "meta_epoch": "2025-12-04T04:00:03.000096",
        "meta_mean_motion": 15.56648528,
        "meta_eccentricity": 0.0001653,
        "meta_inclination": 42.9995,
        "meta_ra_of_asc_node": 121.2071,
        "meta_arg_of_pericenter": 268.2169,
        "meta_mean_anomaly": 70.2324,
        "meta_ephemeris_type": 0,
        "meta_classification_type": "U",
        "meta_norad_cat_id": 66475,
        "meta_element_set_no": 999,
        "meta_rev_at_epoch": 426,
        "meta_bstar": -0.033399,
        "meta_mean_motion_dot": -0.02166908,
        "meta_mean_motion_ddot": 0,
        "tle_line1": "1 66475U 25262V   25338.16670139 -.02166908  00000+0 -33399-1 0  9990",
        "tle_line2": "2 66475  42.9995 121.2071 0001653 268.2169  70.2324 15.56648528  4261"
      },
      "geometry": {
        "type": "Point",
        "coordinates": [
          -90.09401883513098,
          24.724910758846004
        ]
      }
    },
    {
      "type": "Feature",
      "properties": {
        "norad_id": 66476,
        "name": "STARLINK-35372",
        "group": "last-30-days",
        "lat": 23.57907147097006,
        "lon": -88.41403512342278,
        "alt_km": 398.2749170546613,
        "timestamp": "2025-12-04T10:51:48.875833+00:00",
        "meta_object_name": "STARLINK-35372",
        "meta_object_id": "2025-262W",
        "meta_epoch": "2025-12-04T04:00:03.000096",
        "meta_mean_motion": 15.56651552,
        "meta_eccentricity": 0.000168,
        "meta_inclination": 42.9995,
        "meta_ra_of_asc_node": 121.202,
        "meta_arg_of_pericenter": 266.4286,
        "meta_mean_anomaly": 73.9355,
        "meta_ephemeris_type": 0,
        "meta_classification_type": "U",
        "meta_norad_cat_id": 66476,
        "meta_element_set_no": 999,
        "meta_rev_at_epoch": 415,
        "meta_bstar": -0.033447,
        "meta_mean_motion_dot": -0.02169912,
        "meta_mean_motion_ddot": 0,
        "tle_line1": "1 66476U 25262W   25338.16670139 -.02169912  00000+0 -33447-1 0  9993",
        "tle_line2": "2 66476  42.9995 121.2020 0001680 266.4286  73.9355 15.56651552  4159"
      },
      "geometry": {
        "type": "Point",
        "coordinates": [
          -88.41403512342278,
          23.57907147097006
        ]
      }
    },
    {
      "type": "Feature",
      "properties": {
        "norad_id": 66477,
        "name": "STARLINK-35354",
        "group": "last-30-days",
        "lat": 21.23393484102407,
        "lon": -85.1391493333864,
        "alt_km": 398.6690655243865,
        "timestamp": "2025-12-04T10:51:48.875842+00:00",
        "meta_object_name": "STARLINK-35354",
        "meta_object_id": "2025-262X",
        "meta_epoch": "2025-12-04T04:00:03.000096",
        "meta_mean_motion": 15.56649461,
        "meta_eccentricity": 0.0001703,
        "meta_inclination": 42.9996,
        "meta_ra_of_asc_node": 121.1915,
        "meta_arg_of_pericenter": 270.2719,
        "meta_mean_anomaly": 73.9275,
        "meta_ephemeris_type": 0,
        "meta_classification_type": "U",
        "meta_norad_cat_id": 66477,
        "meta_element_set_no": 999,
        "meta_rev_at_epoch": 426,
        "meta_bstar": -0.033418,
        "meta_mean_motion_dot": -0.02168084,
        "meta_mean_motion_ddot": 0,
        "tle_line1": "1 66477U 25262X   25338.16670139 -.02168084  00000+0 -33418-1 0  9991",
        "tle_line2": "2 66477  42.9996 121.1915 0001703 270.2719  73.9275 15.56649461  4262"
      },
      "geometry": {
        "type": "Point",
        "coordinates": [
          -85.1391493333864,
          21.23393484102407
        ]
      }
    },
    {
      "type": "Feature",
      "properties": {
        "norad_id": 66478,
        "name": "STARLINK-35283",
        "group": "last-30-days",
        "lat": 20.038374523784146,
        "lon": -83.54236213885204,
        "alt_km": 398.73258424477353,
        "timestamp": "2025-12-04T10:51:48.875878+00:00",
        "meta_object_name": "STARLINK-35283",
        "meta_object_id": "2025-262Y",
        "meta_epoch": "2025-12-04T04:00:03.000096",
        "meta_mean_motion": 15.56651069,
        "meta_eccentricity": 0.0001719,
        "meta_inclination": 42.9998,
        "meta_ra_of_asc_node": 121.1863,
        "meta_arg_of_pericenter": 265.9327,
        "meta_mean_anomaly": 80.1829,
        "meta_ephemeris_type": 0,
        "meta_classification_type": "U",
        "meta_norad_cat_id": 66478,
        "meta_element_set_no": 999,
        "meta_rev_at_epoch": 426,
        "meta_bstar": -0.033439,
        "meta_mean_motion_dot": -0.02169437,
        "meta_mean_motion_ddot": 0,
        "tle_line1": "1 66478U 25262Y   25338.16670139 -.02169437  00000+0 -33439-1 0  9998",
        "tle_line2": "2 66478  42.9998 121.1863 0001719 265.9327  80.1829 15.56651069  4262"
      },
      "geometry": {
        "type": "Point",
        "coordinates": [
          -83.54236213885204,
          20.038374523784146
        ]
      }
    },
    {
      "type": "Feature",
      "properties": {
        "norad_id": 66479,
        "name": "STARLINK-35581",
        "group": "last-30-days",
        "lat": 22.41533516091113,
        "lon": -86.76417040007925,
        "alt_km": 398.55526833754357,
        "timestamp": "2025-12-04T10:51:48.875890+00:00",
        "meta_object_name": "STARLINK-35581",
        "meta_object_id": "2025-262Z",
        "meta_epoch": "2025-12-04T04:00:03.000096",
        "meta_mean_motion": 15.56652243,
        "meta_eccentricity": 0.0001735,
        "meta_inclination": 42.9996,
        "meta_ra_of_asc_node": 121.196,
        "meta_arg_of_pericenter": 271.7036,
        "meta_mean_anomaly": 70.5756,
        "meta_ephemeris_type": 0,
        "meta_classification_type": "U",
        "meta_norad_cat_id": 66479,
        "meta_element_set_no": 999,
        "meta_rev_at_epoch": 426,
        "meta_bstar": -0.033455,
        "meta_mean_motion_dot": -0.0217046,
        "meta_mean_motion_ddot": 0,
        "tle_line1": "1 66479U 25262Z   25338.16670139 -.02170460  00000+0 -33455-1 0  9995",
        "tle_line2": "2 66479  42.9996 121.1960 0001735 271.7036  70.5756 15.56652243  4266"
      },
      "geometry": {
        "type": "Point",
        "coordinates": [
          -86.76417040007925,
          22.41533516091113
        ]
      }
    }
  ]
}